ONEWEB-0283             
1 49001U 21060AL  24195.20150352  .00000042  00000+0  76857-4 0  9994
2 49001  87.9106   8.9434 0001900  82.7267 277.4079 13.16596447148305
ONEWEB-0284             
1 49002U 21060AM  24195.19518402  .00000036  00000+0  59948-4 0  9992
2 49002  87.9100   8.9269 0001628  85.8513 274.2804 13.16594370148271
ONEWEB-0285             
1 49075U 21075A   24194.85759464 -.00000389  00000+0 -11158-2 0  9997
2 49075  87.8955 130.9218 0001991  77.9371 282.1981 13.12442426142824
ONEWEB-0286             
1 49076U 21075B   24195.21026085  .00000259  00000+0  68552-3 0  9990
2 49076  87.8950 130.8541 0002054  88.7906 271.3458 13.12441461143203
ONEWEB-0287             
1 49077U 21075C   24194.85912036  .00000067  00000+0  13947-3 0  9995
2 49077  87.9183 146.0969 0001792  86.1498 273.9838 13.17649382140879
ONEWEB-0288             
1 49078U 21075D   24195.34894920  .00000578  00000+0  15721-2 0  9990
2 49078  87.8949 130.8303 0001870  81.1375 278.9965 13.12442456143853
ONEWEB-0289             
1 49079U 21075E   24195.41974589  .00000081  00000+0  17623-3 0  9992
2 49079  87.9185 146.0137 0002122  79.2697 280.8674 13.17649280142494
ONEWEB-0290             
1 49080U 21075F   24194.94635042  .00000106  00000+0  23901-3 0  9993
2 49080  87.9184 146.0681 0001583  81.2674 278.8637 13.17650645140870
